SL-3 R/B                
1 19046U 88032B   26082.49147085  .00005564  00000+0  25893-3 0  9996
2 19046  97.5214  65.6968 0025760 181.6949 178.4202 15.20057747 54201
SL-16 R/B               
1 19120U 88039B   26082.29773828 -.00000072  00000+0 -11295-4 0  9997
2 19120  71.0157  39.7714 0023417 314.7520  45.1699 14.19617713960319
COSMOS 1953             
1 19210U 88050A   26082.43764594  .00008587  00000+0  30551-3 0  9998
2 19210  82.5082 144.4192 0012549  79.6553 280.6101 15.28741216 39884
SL-8 R/B                
1 19257U 88053B   26082.44200860  .00000331  00000+0  11571-3 0  9994
2 19257  74.0451  87.1142 0021529 264.5940 258.2138 14.38925040978570
COSMOS 1975             
1 19573U 88093A   26082.47565448  .00007636  00000+0  27562-3 0  9990
2 19573  82.5164 103.8413 0013201 118.6865 241.5703 15.28250098 21516
SL-14 R/B               
1 19574U 88093B   26082.34491525  .00000613  00000+0  67681-4 0  9996
2 19574  82.5331  29.2263 0020607 357.5392 118.5770 14.85672444  3044
SL-16 R/B               
1 19650U 88102B   26082.46680262 -.00000238  00000+0 -95912-4 0  9996
2 19650  70.9982 122.5095 0014909 340.3601  19.6946 14.16155054928840
INTERCOSMOS 24          
1 20261U 89080A   26082.38525159  .00000556  00000+0  16491-3 0  9991
2 20261  82.6014  95.4831 1186753 261.0005  85.5228 12.59576083668522
SL-14 R/B               
1 20262U 89080C   26082.47915673  .00000453  00000+0  12872-3 0  9991
2 20262  82.5965 164.3378 1230855 153.2452 213.7959 12.50507556661877
DELTA 1 R/B             
1 20323U 89089B   26082.55390026  .00000320  00000+0  87602-4 0  9993
2 20323  97.0695 287.7863 0070678  79.0434 281.8705 14.50674138897749
ARIANE 40 R/B           
1 20443U 90005H   26082.43374776  .00000268  00000+0  98829-4 0  9991
2 20443  98.3055 142.6838 0010711 157.6221 202.5437 14.39879065894782
DELTA 2 R/B(1)          
1 20453U 90008B   26082.29022840  .00073697  00000+0  82029-3 0  9991
2 20453  35.6034  85.4758 0079945  25.1791 335.2813 15.57716328928259
